{"type": "FeatureCollection", "features": [ {"type": "Feature", "properties": {"norad_id": 34304, "name": "COSMOS 2251 DEB", "group": "cosmos-2251-debris", "lat": -72.5813841502618, "lon": 32.81484769289383, "alt_km": 704.1839393147502, "timestamp": "2025-12-25T14:48:25.166390+00:00", "meta": {"OBJECT_NAME": "COSMOS 2251 DEB", "OBJECT_ID": "1993-036NA", "EPOCH": "2025-12-25T01:00:18.323136", "MEAN_MOTION": 14.37977007, "ECCENTRICITY": 0.01289546, "INCLINATION": 74.0137, "RA_OF_ASC_NODE": 99.9016, "ARG_OF_PERICENTER": 235.2108, "MEAN_ANOMALY": 304.9592, "EPHEMERIS_TYPE": 0, "CLASSIFICATION_TYPE": "U", "NORAD_CAT_ID": 34304, "ELEMENT_SET_NO": 999, "REV_AT_EPOCH": 87473, "BSTAR": 0.0017366323, "MEAN_MOTION_DOT": 5.757e-05, "MEAN_MOTION_DDOT": 0}, "tle": {"line1": "1 34304U 93036NA  25359.04187874  .00005757  00000+0  17366-2 0  9996", "line2": "2 34304  74.0137  99.9016 0128954 235.2108 304.9592 14.37977007874738"}}, "geometry": {"type": "Point", "coordinates": [32.81484769289383, -72.5813841502618]}}, {"type": "Feature", "properties": {"norad_id": 34307, "name": "COSMOS 2251 DEB", "group": "cosmos-2251-debris", "lat": -32.51430073118307, "lon": 122.95313102396678, "alt_km": 1067.5808302390287, "timestamp": "2025-12-25T14:48:25.166400+00:00", "meta": {"OBJECT_NAME": "COSMOS 2251 DEB", "OBJECT_ID": "1993-036ND", "EPOCH": "2025-12-25T05:29:35.772864", "MEAN_MOTION": 13.54340758, "ECCENTRICITY": 0.03917739, "INCLINATION": 74.0541, "RA_OF_ASC_NODE": 293.0756, "ARG_OF_PERICENTER": 121.2599, "MEAN_ANOMALY": 356.7585, "EPHEMERIS_TYPE": 0, "CLASSIFICATION_TYPE": "U", "NORAD_CAT_ID": 34307, "ELEMENT_SET_NO": 999, "REV_AT_EPOCH": 83031, "BSTAR": 0.0007839365, "MEAN_MOTION_DOT": 8.54e-06, "MEAN_MOTION_DDOT": 0}, "tle": {"line1": "1 34307U 93036ND  25359.22888626  .00000854  00000+0  78394-3 0  9994", "line2": "2 34307  74.0541 293.0756 0391773 121.2599 356.7585 13.54340758830315"}}, "geometry": {"type": "Point", "coordinates": [122.95313102396678, -32.51430073118307]}}, {"type": "Feature", "properties": {"norad_id": 34313, "name": "COSMOS 2251 DEB", "group": "cosmos-2251-debris", "lat": 57.325241738597, "lon": 71.75645008700009, "alt_km": 491.30588865208756, "timestamp": "2025-12-25T14:48:25.166409+00:00", "meta": {"OBJECT_NAME": "COSMOS 2251 DEB", "OBJECT_ID": "1993-036NK", "EPOCH": "2025-12-25T04:49:05.987136", "MEAN_MOTION": 15.21299585, "ECCENTRICITY": 0.00122227, "INCLINATION": 73.9713, "RA_OF_ASC_NODE": 279.2647, "ARG_OF_PERICENTER": 62.1833, "MEAN_ANOMALY": 298.0602, "EPHEMERIS_TYPE": 0, "CLASSIFICATION_TYPE": "U", "NORAD_CAT_ID": 34313, "ELEMENT_SET_NO": 999, "REV_AT_EPOCH": 89254, "BSTAR": 0.0045947369, "MEAN_MOTION_DOT": 0.00104466, "MEAN_MOTION_DDOT": 0}, "tle": {"line1": "1 34313U 93036NK  25359.20076374  .00104466  00000+0  45947-2 0  9999", "line2": "2 34313  73.9713 279.2647 0012222  62.1833 298.0602 15.21299585892547"}}, "geometry": {"type": "Point", "coordinates": [71.75645008700009, 57.325241738597]}}, {"type": "Feature", "properties": {"norad_id": 34314, "name": "COSMOS 2251 DEB", "group": "cosmos-2251-debris", "lat": 58.13612236483193, "lon": -47.11727150458672, "alt_km": 765.9226324070105, "timestamp": "2025-12-25T14:48:25.166418+00:00", "meta": {"OBJECT_NAME": "COSMOS 2251 DEB", "OBJECT_ID": "1993-036NL", "EPOCH": "2025-12-24T23:51:25.392960", "MEAN_MOTION": 14.17454335, "ECCENTRICITY": 0.01035038, "INCLINATION": 74.0063, "RA_OF_ASC_NODE": 286.5148, "ARG_OF_PERICENTER": 29.3008, "MEAN_ANOMALY": 94.785, "EPHEMERIS_TYPE": 0, "CLASSIFICATION_TYPE": "U", "NORAD_CAT_ID": 34314, "ELEMENT_SET_NO": 999, "REV_AT_EPOCH": 86831, "BSTAR": 0.00062882519, "MEAN_MOTION_DOT": 1.319e-05, "MEAN_MOTION_DDOT": 0}, "tle": {"line1": "1 34314U 93036NL  25358.99404390  .00001319  00000+0  62883-3 0  9990", "line2": "2 34314  74.0063 286.5148 0103503  29.3008  94.7850 14.17454335868311"}}, "geometry": {"type": "Point", "coordinates": [-47.11727150458672, 58.13612236483193]}}, {"type": "Feature", "properties": {"norad_id": 34316, "name": "COSMOS 2251 DEB", "group": "cosmos-2251-debris", "lat": 66.66826875674094, "lon": 89.6068139102219, "alt_km": 582.4876492146486, "timestamp": "2025-12-25T14:48:25.166427+00:00", "meta": {"OBJECT_NAME": "COSMOS 2251 DEB", "OBJECT_ID": "1993-036NN", "EPOCH": "2025-12-24T07:45:26.608896", "MEAN_MOTION": 14.92188332, "ECCENTRICITY": 0.00091495, "INCLINATION": 74.066, "RA_OF_ASC_NODE": 313.6788, "ARG_OF_PERICENTER": 34.8503, "MEAN_ANOMALY": 325.3277, "EPHEMERIS_TYPE": 0, "CLASSIFICATION_TYPE": "U", "NORAD_CAT_ID": 34316, "ELEMENT_SET_NO": 999, "REV_AT_EPOCH": 89382, "BSTAR": 0.0019552945, "MEAN_MOTION_DOT": 0.00019955, "MEAN_MOTION_DDOT": 0}, "tle": {"line1": "1 34316U 93036NN  25358.32322464  .00019955  00000+0  19553-2 0  9990", "line2": "2 34316  74.0660 313.6788 0009149  34.8503 325.3277 14.92188332893824"}}, "geometry": {"type": "Point", "coordinates": [89.6068139102219, 66.66826875674094]}}, {"type": "Feature", "properties": {"norad_id": 34317, "name": "COSMOS 2251 DEB", "group": "cosmos-2251-debris", "lat": 71.2152610963503, "lon": 136.58875928877535, "alt_km": 1038.3180626567691, "timestamp": "2025-12-25T14:48:25.166437+00:00", "meta": {"OBJECT_NAME": "COSMOS 2251 DEB", "OBJECT_ID": "1993-036NP", "EPOCH": "2025-12-24T19:53:47.023008", "MEAN_MOTION": 13.65137258, "ECCENTRICITY": 0.03369655, "INCLINATION": 73.9242, "RA_OF_ASC_NODE": 15.8553, "ARG_OF_PERICENTER": 2.7883, "MEAN_ANOMALY": 182.3062, "EPHEMERIS_TYPE": 0, "CLASSIFICATION_TYPE": "U", "NORAD_CAT_ID": 34317, "ELEMENT_SET_NO": 999, "REV_AT_EPOCH": 83784, "BSTAR": 0.00062515685, "MEAN_MOTION_DOT": 7.24e-06, "MEAN_MOTION_DDOT": 0}, "tle": {"line1": "1 34317U 93036NP  25358.82901647  .00000724  00000+0  62516-3 0  9994", "line2": "2 34317  73.9242  15.8553 0336965   2.7883 182.3062 13.65137258837847"}}, "geometry": {"type": "Point", "coordinates": [136.58875928877535, 71.2152610963503]}}, {"type": "Feature", "properties": {"norad_id": 34321, "name": "COSMOS 2251 DEB", "group": "cosmos-2251-debris", "lat": 61.53677557123939, "lon": -79.72122555324934, "alt_km": 728.512161133558, "timestamp": "2025-12-25T14:48:25.166446+00:00", "meta": {"OBJECT_NAME": "COSMOS 2251 DEB", "OBJECT_ID": "1993-036NT", "EPOCH": "2025-12-24T17:17:26.512800", "MEAN_MOTION": 14.50105866, "ECCENTRICITY": 0.00160579, "INCLINATION": 74.0286, "RA_OF_ASC_NODE": 133.8518, "ARG_OF_PERICENTER": 262.7586, "MEAN_ANOMALY": 212.9324, "EPHEMERIS_TYPE": 0, "CLASSIFICATION_TYPE": "U", "NORAD_CAT_ID": 34321, "ELEMENT_SET_NO": 999, "REV_AT_EPOCH": 88660, "BSTAR": 0.00063165502, "MEAN_MOTION_DOT": 2.429e-05, "MEAN_MOTION_DDOT": 0}, "tle": {"line1": "1 34321U 93036NT  25358.72044575  .00002429  00000+0  63166-3 0  9992", "line2": "2 34321  74.0286 133.8518 0016057 262.7586 212.9324 14.50105866886603"}}, "geometry": {"type": "Point", "coordinates": [-79.72122555324934, 61.53677557123939]}}, {"type": "Feature", "properties": {"norad_id": 34323, "name": "COSMOS 2251 DEB", "group": "cosmos-2251-debris", "lat": -6.471963870298331, "lon": -80.29125548983788, "alt_km": 622.0648035864106, "timestamp": "2025-12-25T14:48:25.166455+00:00", "meta": {"OBJECT_NAME": "COSMOS 2251 DEB", "OBJECT_ID": "1993-036NV", "EPOCH": "2025-12-24T07:10:25.806720", "MEAN_MOTION": 14.74770748, "ECCENTRICITY": 0.00574243, "INCLINATION": 73.9537, "RA_OF_ASC_NODE": 100.4246, "ARG_OF_PERICENTER": 141.5564, "MEAN_ANOMALY": 249.6213, "EPHEMERIS_TYPE": 0, "CLASSIFICATION_TYPE": "U", "NORAD_CAT_ID": 34323, "ELEMENT_SET_NO": 999, "REV_AT_EPOCH": 88610, "BSTAR": 0.0024090346, "MEAN_MOTION_DOT": 0.00016563, "MEAN_MOTION_DDOT": 0}, "tle": {"line1": "1 34323U 93036NV  25358.29890980  .00016563  00000+0  24090-2 0  9991", "line2": "2 34323  73.9537 100.4246 0057424 141.5564 249.6213 14.74770748886105"}}, "geometry": {"type": "Point", "coordinates": [-80.29125548983788, -6.471963870298331]}}, {"type": "Feature", "properties": {"norad_id": 34325, "name": "COSMOS 2251 DEB", "group": "cosmos-2251-debris", "lat": 31.305682774529526, "lon": -179.74721665328943, "alt_km": 998.2047677112905, "timestamp": "2025-12-25T14:48:25.166464+00:00", "meta": {"OBJECT_NAME": "COSMOS 2251 DEB", "OBJECT_ID": "1993-036NX", "EPOCH": "2025-12-24T22:08:49.206336", "MEAN_MOTION": 14.04550209, "ECCENTRICITY": 0.019139, "INCLINATION": 73.8708, "RA_OF_ASC_NODE": 171.34, "ARG_OF_PERICENTER": 186.398, "MEAN_ANOMALY": 298.853, "EPHEMERIS_TYPE": 0, "CLASSIFICATION_TYPE": "U", "NORAD_CAT_ID": 34325, "ELEMENT_SET_NO": 999, "REV_AT_EPOCH": 85686, "BSTAR": 0.0020926, "MEAN_MOTION_DOT": 3.912e-05, "MEAN_MOTION_DDOT": 0}, "tle": {"line1": "1 34325U 93036NX  25358.92279174  .00003912  00000+0  20926-2 0  9997", "line2": "2 34325  73.8708 171.3400 0191390 186.3980 298.8530 14.04550209856864"}}, "geometry": {"type": "Point", "coordinates": [-179.74721665328943, 31.305682774529526]}}, {"type": "Feature", "properties": {"norad_id": 34327, "name": "COSMOS 2251 DEB", "group": "cosmos-2251-debris", "lat": 3.179671083506405, "lon": -34.83377441890655, "alt_km": 620.6751738882922, "timestamp": "2025-12-25T14:48:25.166473+00:00", "meta": {"OBJECT_NAME": "COSMOS 2251 DEB", "OBJECT_ID": "1993-036NZ", "EPOCH": "2025-12-24T20:49:00.642720", "MEAN_MOTION": 14.89448683, "ECCENTRICITY": 0.00336831, "INCLINATION": 73.9947, "RA_OF_ASC_NODE": 147.5816, "ARG_OF_PERICENTER": 321.6376, "MEAN_ANOMALY": 157.5225, "EPHEMERIS_TYPE": 0, "CLASSIFICATION_TYPE": "U", "NORAD_CAT_ID": 34327, "ELEMENT_SET_NO": 999, "REV_AT_EPOCH": 89688, "BSTAR": 0.0014167723, "MEAN_MOTION_DOT": 0.00013612, "MEAN_MOTION_DDOT": 0}, "tle": {"line1": "1 34327U 93036NZ  25358.86736855  .00013612  00000+0  14168-2 0  9995", "line2": "2 34327  73.9947 147.5816 0033683 321.6376 157.5225 14.89448683896884"}}, "geometry": {"type": "Point", "coordinates": [-34.83377441890655, 3.179671083506405]}}]}